{
  "type": "FeatureCollection",
  "features": [
    {
      "type": "Feature",
      "properties": {
        "norad_id": 32393,
        "name": "COSMOS 2434 (721)",
        "group": "gnss",
        "lat": -22.19666074870662,
        "lon": 29.22819815372941,
        "alt_km": 19141.469684770862,
        "timestamp": "2025-12-21T22:41:41.702869+00:00",
        "meta_object_name": "COSMOS 2434 (721)",
        "meta_object_id": "2007-065A",
        "meta_epoch": "2025-12-21T09:39:23.764896",
        "meta_mean_motion": 2.13101489,
        "meta_eccentricity": 0.00048181,
        "meta_inclination": 64.3157,
        "meta_ra_of_asc_node": 197.9109,
        "meta_arg_of_pericenter": 72.3225,
        "meta_mean_anomaly": 75.6648,
        "meta_ephemeris_type": 0,
        "meta_classification_type": "U",
        "meta_norad_cat_id": 32393,
        "meta_element_set_no": 999,
        "meta_rev_at_epoch": 13998,
        "meta_bstar": 0,
        "meta_mean_motion_dot": 9.7e-07,
        "meta_mean_motion_ddot": 0,
        "tle_line1": "1 32393U 07065A   25355.40235839  .00000097  00000+0  00000+0 0  9996",
        "tle_line2": "2 32393  64.3157 197.9109 0004818  72.3225  75.6648  2.13101489139981"
      },
      "geometry": {
        "type": "Point",
        "coordinates": [
          29.22819815372941,
          -22.19666074870662
        ]
      }
    },
    {
      "type": "Feature",
      "properties": {
        "norad_id": 32395,
        "name": "COSMOS 2436 (723)",
        "group": "gnss",
        "lat": -20.06268830381242,
        "lon": -172.15671652980262,
        "alt_km": 19094.72410445146,
        "timestamp": "2025-12-21T22:41:41.702880+00:00",
        "meta_object_name": "COSMOS 2436 (723)",
        "meta_object_id": "2007-065C",
        "meta_epoch": "2025-12-21T12:09:56.983392",
        "meta_mean_motion": 2.13100253,
        "meta_eccentricity": 0.00178045,
        "meta_inclination": 64.3244,
        "meta_ra_of_asc_node": 197.9777,
        "meta_arg_of_pericenter": 10.1556,
        "meta_mean_anomaly": 351.0795,
        "meta_ephemeris_type": 0,
        "meta_classification_type": "U",
        "meta_norad_cat_id": 32395,
        "meta_element_set_no": 999,
        "meta_rev_at_epoch": 13994,
        "meta_bstar": 0,
        "meta_mean_motion_dot": 9.6e-07,
        "meta_mean_motion_ddot": 0,
        "tle_line1": "1 32395U 07065C   25355.50690953  .00000096  00000+0  00000+0 0  9990",
        "tle_line2": "2 32395  64.3244 197.9777 0017804  10.1556 351.0795  2.13100253139945"
      },
      "geometry": {
        "type": "Point",
        "coordinates": [
          -172.15671652980262,
          -20.06268830381242
        ]
      }
    },
    {
      "type": "Feature",
      "properties": {
        "norad_id": 32711,
        "name": "GPS BIIRM-6 (PRN 07)",
        "group": "gnss",
        "lat": -25.17493002994911,
        "lon": -3.3809203341719476,
        "alt_km": 19733.722783125613,
        "timestamp": "2025-12-21T22:41:41.702892+00:00",
        "meta_object_name": "GPS BIIRM-6 (PRN 07)",
        "meta_object_id": "2008-012A",
        "meta_epoch": "2025-12-19T15:41:26.858112",
        "meta_mean_motion": 2.00565937,
        "meta_eccentricity": 0.0202735,
        "meta_inclination": 54.4779,
        "meta_ra_of_asc_node": 157.0969,
        "meta_arg_of_pericenter": 245.0276,
        "meta_mean_anomaly": 112.8468,
        "meta_ephemeris_type": 0,
        "meta_classification_type": "U",
        "meta_norad_cat_id": 32711,
        "meta_element_set_no": 999,
        "meta_rev_at_epoch": 13015,
        "meta_bstar": 0,
        "meta_mean_motion_dot": 6.7e-07,
        "meta_mean_motion_ddot": 0,
        "tle_line1": "1 32711U 08012A   25353.65378308  .00000067  00000+0  00000+0 0  9994",
        "tle_line2": "2 32711  54.4779 157.0969 0202735 245.0276 112.8468  2.00565937130151"
      },
      "geometry": {
        "type": "Point",
        "coordinates": [
          -3.3809203341719476,
          -25.17493002994911
        ]
      }
    },
    {
      "type": "Feature",
      "properties": {
        "norad_id": 35752,
        "name": "GPS BIIRM-8 (PRN 05)",
        "group": "gnss",
        "lat": -41.445145696397475,
        "lon": -109.15291713139047,
        "alt_km": 20307.152514299734,
        "timestamp": "2025-12-21T22:41:41.702904+00:00",
        "meta_object_name": "GPS BIIRM-8 (PRN 05)",
        "meta_object_id": "2009-043A",
        "meta_epoch": "2025-12-20T02:09:52.509312",
        "meta_mean_motion": 2.00565329,
        "meta_eccentricity": 0.00516467,
        "meta_inclination": 56.096,
        "meta_ra_of_asc_node": 34.4932,
        "meta_arg_of_pericenter": 81.7821,
        "meta_mean_anomaly": 251.1308,
        "meta_ephemeris_type": 0,
        "meta_classification_type": "U",
        "meta_norad_cat_id": 35752,
        "meta_element_set_no": 999,
        "meta_rev_at_epoch": 11976,
        "meta_bstar": 0,
        "meta_mean_motion_dot": -6.1e-07,
        "meta_mean_motion_ddot": 0,
        "tle_line1": "1 35752U 09043A   25354.09019108 -.00000061  00000+0  00000+0 0  9991",
        "tle_line2": "2 35752  56.0960  34.4932 0051646  81.7821 251.1308  2.00565329119760"
      },
      "geometry": {
        "type": "Point",
        "coordinates": [
          -109.15291713139047,
          -41.445145696397475
        ]
      }
    },
    {
      "type": "Feature",
      "properties": {
        "norad_id": 36111,
        "name": "COSMOS 2456 (730)",
        "group": "gnss",
        "lat": 1.7054441210489255,
        "lon": 77.83577456814672,
        "alt_km": 19126.530518136355,
        "timestamp": "2025-12-21T22:41:41.702915+00:00",
        "meta_object_name": "COSMOS 2456 (730)",
        "meta_object_id": "2009-070A",
        "meta_epoch": "2025-12-20T03:13:18.516576",
        "meta_mean_motion": 2.13103685,
        "meta_eccentricity": 0.00033011,
        "meta_inclination": 64.904,
        "meta_ra_of_asc_node": 77.0852,
        "meta_arg_of_pericenter": 296.9564,
        "meta_mean_anomaly": 115.2996,
        "meta_ephemeris_type": 0,
        "meta_classification_type": "U",
        "meta_norad_cat_id": 36111,
        "meta_element_set_no": 999,
        "meta_rev_at_epoch": 12461,
        "meta_bstar": 0,
        "meta_mean_motion_dot": -2.2e-07,
        "meta_mean_motion_ddot": 0,
        "tle_line1": "1 36111U 09070A   25354.13424209 -.00000022  00000+0  00000+0 0  9995",
        "tle_line2": "2 36111  64.9040  77.0852 0003301 296.9564 115.2996  2.13103685124610"
      },
      "geometry": {
        "type": "Point",
        "coordinates": [
          77.83577456814672,
          1.7054441210489255
        ]
      }
    },
    {
      "type": "Feature",
      "properties": {
        "norad_id": 36112,
        "name": "COSMOS 2457 (733)",
        "group": "gnss",
        "lat": 43.178661980973615,
        "lon": -129.1737384224702,
        "alt_km": 19115.129443260223,
        "timestamp": "2025-12-21T22:41:41.702926+00:00",
        "meta_object_name": "COSMOS 2457 (733)",
        "meta_object_id": "2009-070B",
        "meta_epoch": "2025-12-21T08:40:21.763200",
        "meta_mean_motion": 2.13101117,
        "meta_eccentricity": 0.00045367,
        "meta_inclination": 64.8902,
        "meta_ra_of_asc_node": 76.8905,
        "meta_arg_of_pericenter": 162.3214,
        "meta_mean_anomaly": 240.4067,
        "meta_ephemeris_type": 0,
        "meta_classification_type": "U",
        "meta_norad_cat_id": 36112,
        "meta_element_set_no": 999,
        "meta_rev_at_epoch": 12464,
        "meta_bstar": 0,
        "meta_mean_motion_dot": -1.1e-07,
        "meta_mean_motion_ddot": 0,
        "tle_line1": "1 36112U 09070B   25355.36136300 -.00000011  00000+0  00000+0 0  9992",
        "tle_line2": "2 36112  64.8902  76.8905 0004536 162.3214 240.4067  2.13101117124643"
      },
      "geometry": {
        "type": "Point",
        "coordinates": [
          -129.1737384224702,
          43.178661980973615
        ]
      }
    },
    {
      "type": "Feature",
      "properties": {
        "norad_id": 36402,
        "name": "COSMOS 2460 (732)",
        "group": "gnss",
        "lat": 43.699628572258405,
        "lon": 114.65812298927591,
        "alt_km": 19130.156289206177,
        "timestamp": "2025-12-21T22:41:41.702938+00:00",
        "meta_object_name": "COSMOS 2460 (732)",
        "meta_object_id": "2010-007C",
        "meta_epoch": "2025-12-21T10:11:10.908384",
        "meta_mean_motion": 2.13106318,
        "meta_eccentricity": 0.0002509,
        "meta_inclination": 65.525,
        "meta_ra_of_asc_node": 320.48,
        "meta_arg_of_pericenter": 281.7872,
        "meta_mean_anomaly": 168.9418,
        "meta_ephemeris_type": 0,
        "meta_classification_type": "U",
        "meta_norad_cat_id": 36402,
        "meta_element_set_no": 999,
        "meta_rev_at_epoch": 12294,
        "meta_bstar": 0,
        "meta_mean_motion_dot": -4.6e-07,
        "meta_mean_motion_ddot": 0,
        "tle_line1": "1 36402U 10007C   25355.42443181 -.00000046  00000+0  00000+0 0  9999",
        "tle_line2": "2 36402  65.5250 320.4800 0002509 281.7872 168.9418  2.13106318122948"
      },
      "geometry": {
        "type": "Point",
        "coordinates": [
          114.65812298927591,
          43.699628572258405
        ]
      }
    }
  ]
}